{
  "norad_id": 61560,
  "name": "QIANFAN-27",
  "history": [
    {
      "epoch": "2026-03-28T22:52:29.133408Z",
      "apogee_km": 804.32087740106,
      "perigee_km": 796.0814372972927,
      "latitude_deg": -3.8365337222497223e-05,
      "longitude_deg": -105.02285881028415,
      "height_km": 800.3445194044809,
      "semi_major_axis_km": 7178.338157349176,
      "eccentricity": 0.00057391,
      "inclination_deg": 88.9776,
      "raan_deg": 64.4647,
      "arg_perigee_deg": 315.2261,
      "mean_anomaly_deg": 44.8469,
      "mean_motion_rev_day": 14.27469679
    },
    {
      "epoch": "2026-03-29T03:55:18.739776Z",
      "apogee_km": 804.2993812809027,
      "perigee_km": 796.0988501023376,
      "latitude_deg": -4.120357588931737e-05,
      "longitude_deg": 179.03847044346972,
      "height_km": 800.4016214245172,
      "semi_major_axis_km": 7178.33611569162,
      "eccentricity": 0.0005712,
      "inclination_deg": 88.9777,
      "raan_deg": 64.44,
      "arg_perigee_deg": 314.3347,
      "mean_anomaly_deg": 45.7378,
      "mean_motion_rev_day": 14.27470288
    }
  ]
}